NORAD_CAT_ID,OBJECT_NAME,OBJECT_TYPE,EPOCH,MEAN_MOTION,ECCENTRICITY,INCLINATION,RA_OF_ASC_NODE,ARG_OF_PERICENTER,MEAN_ANOMALY,BSTAR,MEAN_MOTION_DOT,MEAN_MOTION_DDOT,TLE_LINE0,TLE_LINE1,TLE_LINE2,SEMIMAJOR_AXIS,PERIOD,APOGEE,PERIGEE,DECAYED
52306.0,STARLINK-3747,PAYLOAD,2023-01-25 09:03:08,15.08833593,0.0001931,53.2171,163.6885,80.1002,280.0208,7.5137e-05,9.08e-06,0.0,0 STARLINK-3747,1 52306U 22041AX  23025.37718119  .00000908  00000-0  75137-4 0  9998,2 52306  53.2171 163.6885 0001931  80.1002 280.0208 15.08833593 43865,6917.9,95.438,541.101,538.429,0.0
52306.0,STARLINK-3747,PAYLOAD,2023-01-25 13:49:17,15.08837986,0.0002015,53.2178,162.7991,74.1669,285.9545,4.317e-05,3.99e-06,0.0,0 STARLINK-3747,1 52306U 22041AX  23025.57589939  .00000399  00000-0  43170-4 0  9992,2 52306  53.2178 162.7991 0002015  74.1669 285.9545 15.08837986 43897,6917.887,95.438,541.145,538.3580000000001,0.0
52306.0,STARLINK-3747,PAYLOAD,2023-01-25 15:24:40,15.08836614,0.0001727,53.2166,162.5,77.2478,282.8707,9.3513e-05,1.2e-05,0.0,0 STARLINK-3747,1 52306U 22041AX  23025.64213826  .00001200  00000-0  93513-4 0  9997,2 52306  53.2166 162.5000 0001727  77.2478 282.8707 15.08836614 43909,6917.891,95.438,540.95,538.561,0.0
52306.0,STARLINK-3747,PAYLOAD,2023-01-26 13:40:04,15.088441,0.0001788,53.217,158.3377,76.917,283.2021,0.00011042,1.47e-05,0.0,0 STARLINK-3747,1 52306U 22041AX  23026.56949253  .00001470  00000-0  11042-3 0  9994,2 52306  53.2170 158.3377 0001788  76.9170 283.2021 15.08844100 44045,6917.868,95.437,540.97,538.496,0.0
52306.0,STARLINK-3747,PAYLOAD,2023-01-26 15:15:27,15.0884848,0.0001784,53.217,158.0407,74.4306,285.6883,5.143800000000001e-05,5.31e-06,0.0,0 STARLINK-3747,1 52306U 22041AX  23026.63573162  .00000531  00000-0  51438-4 0  9995,2 52306  53.2170 158.0407 0001784  74.4306 285.6883 15.08848480 44054,6917.854,95.437,540.9540000000001,538.485,0.0
52306.0,STARLINK-3747,PAYLOAD,2023-01-27 13:30:51,15.08837509,0.0001794,53.218,153.8785,84.135,275.9846,7.620600000000001e-05,9.25e-06,0.0,0 STARLINK-3747,1 52306U 22041AX  23027.56309691  .00000925  00000-0  76206-4 0  9999,2 52306  53.2180 153.8785 0001794  84.1350 275.9846 15.08837509 44191,6917.888000000001,95.438,540.994,538.512,0.0
52306.0,STARLINK-3747,PAYLOAD,2023-01-28 13:21:38,15.08841991,0.0001672,53.2177,149.4159,97.7648,262.3534,1.224e-05,-9.3e-07,0.0,0 STARLINK-3747,1 52306U 22041AX  23028.55669551 -.00000093  00000-0  12240-4 0  9998,2 52306  53.2177 149.4159 0001672  97.7648 262.3534 15.08841991 44349,6917.874,95.437,540.896,538.583,0.0
52306.0,STARLINK-3747,PAYLOAD,2023-01-29 06:50:53,15.08838883,0.0001824,53.2185,146.1461,104.8964,255.2231,-6.6089e-05,-1.34e-05,0.0,0 STARLINK-3747,1 52306U 22041AX  23029.28534205 -.00001340  00000-0 -66089-4 0  9993,2 52306  53.2185 146.1461 0001824 104.8964 255.2231 15.08838883 44451,6917.884,95.438,541.011,538.487,0.0
52306.0,STARLINK-3747,PAYLOAD,2023-01-29 17:58:35,15.08839457,0.0001655,53.2189,144.0645,105.5266,254.5909,6.4936e-05,7.46e-06,0.0,0 STARLINK-3747,1 52306U 22041AX  23029.74901829  .00000746  00000-0  64936-4 0  9990,2 52306  53.2189 144.0645 0001655 105.5266 254.5909 15.08839457 44521,6917.882,95.438,540.892,538.602,0.0
52306.0,STARLINK-3747,PAYLOAD,2023-01-30 08:17:04,15.08832866,0.0001397,53.2185,141.3883,102.7732,257.3416,1.1577e-05,-1.04e-06,0.0,0 STARLINK-3747,1 52306U 22041AX  23030.34518640 -.00000104  00000-0  11577-4 0  9995,2 52306  53.2185 141.3883 0001397 102.7732 257.3416 15.08832866 44612,6917.902,95.438,540.734,538.801,0.0
52306.0,STARLINK-3747,PAYLOAD,2023-01-30 11:27:50,15.08835941,0.0001383,53.2187,140.7933,104.7882,255.3263,3.1917e-05,2.2e-06,0.0,0 STARLINK-3747,1 52306U 22041AX  23030.47766371  .00000220  00000-0  31917-4 0  9993,2 52306  53.2187 140.7933 0001383 104.7882 255.3263 15.08835941 44633,6917.893,95.438,540.715,538.801,0.0
52306.0,STARLINK-3747,PAYLOAD,2023-01-31 11:18:37,15.08838754,0.0001374,53.2189,136.3336,103.4738,256.6407,0.00011764,1.585e-05,0.0,0 STARLINK-3747,1 52306U 22041AX  23031.47126181  .00001585  00000-0  11764-3 0  9995,2 52306  53.2189 136.3336 0001374 103.4738 256.6407 15.08838754 44784,6917.884,95.438,540.7,538.799,0.0
52306.0,STARLINK-3747,PAYLOAD,2023-01-31 16:04:46,15.08845603,0.0001208,53.2162,135.439,95.8525,264.2604,0.00011749,1.583e-05,0.0,0 STARLINK-3747,1 52306U 22041AX  23031.66997716  .00001583  00000-0  11749-3 0  9997,2 52306  53.2162 135.4390 0001208  95.8525 264.2604 15.08845603 44818,6917.863,95.437,540.564,538.893,0.0
52306.0,STARLINK-3747,PAYLOAD,2023-02-01 12:44:46,15.08846135,0.0001105,53.2166,131.5745,93.4902,266.6216,8.2247e-05,1.022e-05,0.0,0 STARLINK-3747,1 52306U 22041AX  23032.53109696  .00001022  00000-0  82247-4 0  9996,2 52306  53.2166 131.5745 0001105  93.4902 266.6216 15.08846135 44942,6917.862,95.437,540.491,538.962,0.0
52306.0,STARLINK-3747,PAYLOAD,2023-02-02 12:35:34,15.08841273,8.98e-05,53.2166,127.1153,51.0659,309.0413,3.2634e-06,-2.36e-06,0.0,0 STARLINK-3747,1 52306U 22041AX  23033.52470137 -.00000236  00000-0  32634-5 0  9990,2 52306  53.2166 127.1153 0000898  51.0659 309.0413 15.08841273 45099,6917.876,95.437,540.363,539.12,0.0
52306.0,STARLINK-3747,PAYLOAD,2023-02-02 15:46:20,15.08845251,0.000139,53.2164,126.5182,97.0778,263.0372,8.7094e-06,-1.49e-06,0.0,0 STARLINK-3747,1 52306U 22041AX  23033.65717816 -.00000149  00000-0  87094-5 0  9995,2 52306  53.2164 126.5182 0001390  97.0778 263.0372 15.08845251 45118,6917.864,95.437,540.691,538.768,0.0
52306.0,STARLINK-3747,PAYLOAD,2023-02-03 06:04:49,15.08834596,0.0001421,53.2164,123.844,92.7576,267.3579,-3.437e-05,-8.35e-06,0.0,0 STARLINK-3747,1 52306U 22041AX  23034.25334782 -.00000835  00000-0 -34370-4 0  9990,2 52306  53.2164 123.8440 0001421  92.7576 267.3579 15.08834596 45204,6917.897,95.438,540.745,538.779,0.0
52306.0,STARLINK-3747,PAYLOAD,2023-02-03 09:15:35,15.08834476,0.000139,53.2166,123.2493,93.1209,266.9942,-3.5046e-05,-8.46e-06,0.0,0 STARLINK-3747,1 52306U 22041AX  23034.38582785 -.00000846  00000-0 -35046-4 0  9995,2 52306  53.2166 123.2493 0001390  93.1209 266.9942 15.08834476 45229,6917.897,95.438,540.724,538.801,0.0
52306.0,STARLINK-3747,PAYLOAD,2023-02-04 10:41:45,15.08844651,0.0001516,53.2171,118.4897,105.7686,254.3473,6.8304e-05,7.99e-06,0.0,0 STARLINK-3747,1 52306U 22041AX  23035.44565975  .00000799  00000-0  68304-4 0  9993,2 52306  53.2171 118.4897 0001516 105.7686 254.3473 15.08844651 45381,6917.866,95.437,540.78,538.682,0.0
52306.0,STARLINK-3747,PAYLOAD,2023-02-04 13:52:31,15.08849097,0.0001516,53.2181,117.8967,97.8693,262.2471,9.077e-05,1.157e-05,0.0,0 STARLINK-3747,1 52306U 22041AX  23035.57813677  .00001157  00000-0  90770-4 0  9993,2 52306  53.2181 117.8967 0001516  97.8693 262.2471 15.08849097 45400,6917.853,95.437,540.766,538.669,0.0
52306.0,STARLINK-3747,PAYLOAD,2023-02-04 21:49:27,15.08839165,0.0001652,53.2191,116.4099,79.7479,280.3699,-2.6114e-06,-3.3e-06,0.0,0 STARLINK-3747,1 52306U 22041AX  23035.90934646 -.00000330  00000-0 -26114-5 0  9996,2 52306  53.2191 116.4099 0001652  79.7479 280.3699 15.08839165 45457,6917.883,95.438,540.891,538.605,0.0
52306.0,STARLINK-3747,PAYLOAD,2023-02-05 04:11:00,15.08834832,0.000171,53.2196,115.2216,79.8702,280.2483,4.4057e-05,4.13e-06,0.0,0 STARLINK-3747,1 52306U 22041AX  23036.17430927  .00000413  00000-0  44057-4 0  9994,2 52306  53.2196 115.2216 0001710  79.8702 280.2483 15.08834832 45495,6917.896,95.438,540.944,538.578,0.0
52306.0,STARLINK-3747,PAYLOAD,2023-02-05 12:07:56,15.08833599,0.0001676,53.2192,113.7342,113.8167,246.3001,1.3139e-05,-7.9e-07,0.0,0 STARLINK-3747,1 52306U 22041AX  23036.50551215 -.00000079  00000-0  13139-4 0  9991,2 52306  53.2192 113.7342 0001676 113.8167 246.3001 15.08833599 45543,6917.9,95.438,540.924,538.606,0.0
52306.0,STARLINK-3747,PAYLOAD,2023-02-05 21:40:14,15.08840134,0.000139,53.2188,111.9504,105.818,254.2965,7.0809e-06,-1.75e-06,0.0,0 STARLINK-3747,1 52306U 22041AX  23036.90295012 -.00000175  00000-0  70809-5 0  9990,2 52306  53.2188 111.9504 0001390 105.8180 254.2965 15.08840134 45604,6917.88,95.438,540.707,538.783,0.0
52306.0,STARLINK-3747,PAYLOAD,2023-02-06 10:23:19,15.08845988,0.0001424,53.2185,109.5713,105.9806,254.1343,5.5046e-05,5.88e-06,0.0,0 STARLINK-3747,1 52306U 22041AX  23037.43286559  .00000588  00000-0  55046-4 0  9997,2 52306  53.2185 109.5713 0001424 105.9806 254.1343 15.08845988 45689,6917.862,95.437,540.712,538.742,0.0
52306.0,STARLINK-3747,PAYLOAD,2023-02-06 13:34:05,15.08847992,0.0001425,53.2184,108.977,103.8657,256.2494,7.358e-05,8.84e-06,0.0,0 STARLINK-3747,1 52306U 22041AX  23037.56534425  .00000884  00000-0  73580-4 0  9991,2 52306  53.2184 108.9770 0001425 103.8657 256.2494 15.08847992 45706,6917.856,95.437,540.707,538.735,0.0
52306.0,STARLINK-3747,PAYLOAD,2023-02-07 13:24:52,15.08857851,0.0001384,53.2173,104.516,83.6905,276.4245,0.00033177,4.999e-05,0.0,0 STARLINK-3747,1 52306U 22041AX  23038.55893715  .00004999  00000-0  33177-3 0  9999,2 52306  53.2173 104.5160 0001384  83.6905 276.4245 15.08857851 45853,6917.826,95.436,540.648,538.733,0.0
52306.0,STARLINK-3747,PAYLOAD,2023-02-08 11:40:16,15.08848564,0.0001536,53.2167,100.3527,78.8967,281.2198,6.8186e-05,7.98e-06,0.0,0 STARLINK-3747,1 52306U 22041AX  23039.48629820  .00000798  00000-0  68186-4 0  9998,2 52306  53.2167 100.3527 0001536  78.8967 281.2198 15.08848564 45997,6917.854,95.437,540.782,538.657,0.0
52306.0,STARLINK-3747,PAYLOAD,2023-02-09 03:34:07,15.08838191,0.0001464,53.2176,97.379,101.3079,258.8078,-6.9491e-05,-1.394e-05,0.0,0 STARLINK-3747,1 52306U 22041AX  23040.14870190 -.00001394  00000-0 -69491-4 0  9996,2 52306  53.2176  97.3790 0001464 101.3079 258.8078 15.08838191 46094,6917.886,95.438,540.764,538.738,0.0
52306.0,STARLINK-3747,PAYLOAD,2023-02-09 09:55:40,15.08842846,0.0001603,53.2163,96.188,106.6062,253.5107,4.3606e-05,4.06e-06,0.0,0 STARLINK-3747,1 52306U 22041AX  23040.41365899  .00000406  00000-0  43606-4 0  9992,2 52306  53.2163  96.1880 0001603 106.6062 253.5107 15.08842846 46134,6917.872,95.437,540.846,538.628,0.0
